start=new Date('2023-06-15T00:00:00.000Z').valueOf();
sats=[{"INCLINATION":"53.0543","LAUNCH_DATE":"2021-04-07","OBJECT_TYPE":"PAYLOAD","CLASSIFICATION_TYPE":"U","ELEMENT_SET_NO":"999","EPHEMERIS_TYPE":"0","REF_FRAME":"TEME","RA_OF_ASC_NODE":"335.6043","SITE":"AFETR","PERIAPSIS":"545.692","TIME_SYSTEM":"UTC","OBJECT_NAME":"STARLINK-2484","PERIOD":"95.593","TLE_LINE1":"1 48141U 21027BB  23165.84444303 -.00001189  00000-0 -60914-4 0  9992","GP_ID":"233945467","OBJECT_ID":"2021-027BB","CENTER_NAME":"EARTH","DECAY_DATE":null,"TLE_LINE2":"2 48141  53.0543 335.6043 0002277  82.0915 278.0332 15.06381941121880","MEAN_ELEMENT_THEORY":"SGP4","MEAN_MOTION_DOT":"-0.00001189","SEMIMAJOR_AXIS":"6925.404","BSTAR":"-0.00006091400000","ECCENTRICITY":"0.00022770","MEAN_MOTION_DDOT":"0.0000000000000","MEAN_ANOMALY":"278.0332","ARG_OF_PERICENTER":"82.0915","EPOCH":"2023-06-14T20:15:59.877792","MEAN_MOTION":"15.06381941","FILE":"3933215","APOAPSIS":"548.846","COUNTRY_CODE":"US","REV_AT_EPOCH":"12188","NORAD_CAT_ID":"48141","RCS_SIZE":"LARGE"},{"MEAN_ANOMALY":"257.3165","MEAN_MOTION_DDOT":"0.0000000000000","BSTAR":"0.00003147500000","ECCENTRICITY":"0.00010400","MEAN_MOTION_DOT":"0.00000187","SEMIMAJOR_AXIS":"6925.374","TLE_LINE2":"2 48142  53.0536 316.1792 0001040 102.7940 257.3165 15.06391536122137","MEAN_ELEMENT_THEORY":"SGP4","RCS_SIZE":"LARGE","NORAD_CAT_ID":"48142","REV_AT_EPOCH":"12213","COUNTRY_CODE":"US","MEAN_MOTION":"15.06391536","APOAPSIS":"547.960","FILE":"3933215","ARG_OF_PERICENTER":"102.7940","EPOCH":"2023-06-14T17:12:52.257600","TIME_SYSTEM":"UTC","OBJECT_NAME":"STARLINK-2485","PERIAPSIS":"546.519","SITE":"AFETR","RA_OF_ASC_NODE":"316.1792","REF_FRAME":"TEME","EPHEMERIS_TYPE":"0","ELEMENT_SET_NO":"999","CLASSIFICATION_TYPE":"U","LAUNCH_DATE":"2021-04-07","INCLINATION":"53.0536","OBJECT_TYPE":"PAYLOAD","DECAY_DATE":null,"GP_ID":"233946217","OBJECT_ID":"2021-027BC","CENTER_NAME":"EARTH","TLE_LINE1":"1 48142U 21027BC  23165.71727150  .00000187  00000-0  31475-4 0  9998","PERIOD":"95.593"},{"MEAN_ANOMALY":"296.6381","MEAN_MOTION_DDOT":"0.0000000000000","MEAN_MOTION_DOT":"0.00022137","SEMIMAJOR_AXIS":"6925.334","TLE_LINE2":"2 48143  53.0537 272.4497 0001297  63.4740 296.6381 15.06404789122715","MEAN_ELEMENT_THEORY":"SGP4","BSTAR":"0.00150020000000","ECCENTRICITY":"0.00012970","NORAD_CAT_ID":"48143","RCS_SIZE":"LARGE","REV_AT_EPOCH":"12271","ARG_OF_PERICENTER":"63.4740","EPOCH":"2023-06-14T10:26:07.868256","COUNTRY_CODE":"US","MEAN_MOTION":"15.06404789","FILE":"3932965","APOAPSIS":"548.097","SITE":"AFETR","RA_OF_ASC_NODE":"272.4497","TIME_SYSTEM":"UTC","OBJECT_NAME":"STARLINK-2486","PERIAPSIS":"546.301","CLASSIFICATION_TYPE":"U","ELEMENT_SET_NO":"999","OBJECT_TYPE":"PAYLOAD","LAUNCH_DATE":"2021-04-07","INCLINATION":"53.0537","REF_FRAME":"TEME","EPHEMERIS_TYPE":"0","TLE_LINE1":"1 48143U 21027BD  23165.43481329  .00022137  00000-0  15002-2 0  9998","PERIOD":"95.592","DECAY_DATE":null,"GP_ID":"233913339","OBJECT_ID":"2021-027BD","CENTER_NAME":"EARTH"},{"BSTAR":"0.00039275000000","ECCENTRICITY":"0.00011230","TLE_LINE2":"2 48144  53.0527 315.8539 0001123 105.2797 254.8316 15.06393756122130","MEAN_ELEMENT_THEORY":"SGP4","MEAN_MOTION_DOT":"0.00005572","SEMIMAJOR_AXIS":"6925.368","MEAN_MOTION_DDOT":"0.0000000000000","MEAN_ANOMALY":"254.8316","MEAN_MOTION":"15.06393756","FILE":"3933215","APOAPSIS":"548.010","COUNTRY_CODE":"US","ARG_OF_PERICENTER":"105.2797","EPOCH":"2023-06-14T18:59:01.787424","REV_AT_EPOCH":"12213","RCS_SIZE":"LARGE","NORAD_CAT_ID":"48144","EPHEMERIS_TYPE":"0","REF_FRAME":"TEME","LAUNCH_DATE":"2021-04-07","OBJECT_TYPE":"PAYLOAD","INCLINATION":"53.0527","ELEMENT_SET_NO":"999","CLASSIFICATION_TYPE":"U","PERIAPSIS":"546.455","TIME_SYSTEM":"UTC","OBJECT_NAME":"STARLINK-2487","RA_OF_ASC_NODE":"315.8539","SITE":"AFETR","GP_ID":"233944716","OBJECT_ID":"2021-027BE","CENTER_NAME":"EARTH","DECAY_DATE":null,"PERIOD":"95.593","TLE_LINE1":"1 48144U 21027BE  23165.79099291  .00005572  00000-0  39275-3 0  9994"},{"APOAPSIS":"548.106","FILE":"3933215","MEAN_MOTION":"15.06382750","COUNTRY_CODE":"US","EPOCH":"2023-06-14T20:39:52.739712","ARG_OF_PERICENTER":"91.9967","REV_AT_EPOCH":"12215","NORAD_CAT_ID":"48145","RCS_SIZE":"LARGE","ECCENTRICITY":"0.00012130","BSTAR":"0.00085218000000","MEAN_ELEMENT_THEORY":"SGP4","TLE_LINE2":"2 48145  53.0544 315.5327 0001213  91.9967 268.1161 15.06382750122152","SEMIMAJOR_AXIS":"6925.401","MEAN_MOTION_DOT":"0.00012429","MEAN_MOTION_DDOT":"0.0000000000000","MEAN_ANOMALY":"268.1161","CENTER_NAME":"EARTH","GP_ID":"233945968","OBJECT_ID":"2021-027BF","DECAY_DATE":null,"PERIOD":"95.593","TLE_LINE1":"1 48145U 21027BF  23165.86102708  .00012429  00000-0  85218-3 0  9998","EPHEMERIS_TYPE":"0","REF_FRAME":"TEME","LAUNCH_DATE":"2021-04-07","INCLINATION":"53.0544","OBJECT_TYPE":"PAYLOAD","ELEMENT_SET_NO":"999","CLASSIFICATION_TYPE":"U","PERIAPSIS":"546.426","OBJECT_NAME":"STARLINK-2488","TIME_SYSTEM":"UTC","SITE":"AFETR","RA_OF_ASC_NODE":"315.5327"},{"DECAY_DATE":null,"CENTER_NAME":"EARTH","OBJECT_ID":"2021-027BG","GP_ID":"233945717","TLE_LINE1":"1 48146U 21027BG  23165.59379314 -.00003684  00000-0 -22862-3 0  9999","PERIOD":"95.593","REF_FRAME":"TEME","EPHEMERIS_TYPE":"0","CLASSIFICATION_TYPE":"U","ELEMENT_SET_NO":"999","LAUNCH_DATE":"2021-04-07","INCLINATION":"53.0542","OBJECT_TYPE":"PAYLOAD","OBJECT_NAME":"STARLINK-2489","TIME_SYSTEM":"UTC","PERIAPSIS":"546.697","SITE":"AFETR","RA_OF_ASC_NODE":"336.7359","COUNTRY_CODE":"US","APOAPSIS":"547.803","FILE":"3933215","MEAN_MOTION":"15.06388130","EPOCH":"2023-06-14T14:15:03.727296","ARG_OF_PERICENTER":"93.7078","NORAD_CAT_ID":"48146","RCS_SIZE":"LARGE","REV_AT_EPOCH":"12183","ECCENTRICITY":"0.00007990","BSTAR":"-0.00022862000000","SEMIMAJOR_AXIS":"6925.385","MEAN_MOTION_DOT":"-0.00003684","MEAN_ELEMENT_THEORY":"SGP4","TLE_LINE2":"2 48146  53.0542 336.7359 0000799  93.7078 266.4002 15.06388130121839","MEAN_ANOMALY":"266.4002","MEAN_MOTION_DDOT":"0.0000000000000"},{"REF_FRAME":"TEME","EPHEMERIS_TYPE":"0","ELEMENT_SET_NO":"999","CLASSIFICATION_TYPE":"U","LAUNCH_DATE":"2021-04-07","OBJECT_TYPE":"PAYLOAD","INCLINATION":"53.0551","TIME_SYSTEM":"UTC","OBJECT_NAME":"STARLINK-2490","PERIAPSIS":"546.389","SITE":"AFETR","RA_OF_ASC_NODE":"340.5532","DECAY_DATE":null,"GP_ID":"233944466","OBJECT_ID":"2021-027BH","CENTER_NAME":"EARTH","TLE_LINE1":"1 48147U 21027BH  23165.85688244  .00005279  00000-0  37313-3 0  9991","PERIOD":"95.593","BSTAR":"0.00037313000000","ECCENTRICITY":"0.00012420","MEAN_MOTION_DOT":"0.00005279","SEMIMAJOR_AXIS":"6925.385","TLE_LINE2":"2 48147  53.0551 340.5532 0001242 106.8580 253.2545 15.06388254121804","MEAN_ELEMENT_THEORY":"SGP4","MEAN_ANOMALY":"253.2545","MEAN_MOTION_DDOT":"0.0000000000000","COUNTRY_CODE":"US","MEAN_MOTION":"15.06388254","APOAPSIS":"548.110","FILE":"3933215","ARG_OF_PERICENTER":"106.8580","EPOCH":"2023-06-14T20:33:54.642816","NORAD_CAT_ID":"48147","RCS_SIZE":"LARGE","REV_AT_EPOCH":"12180"},{"MEAN_MOTION":"15.06377719","FILE":"3933112","APOAPSIS":"547.744","COUNTRY_CODE":"US","ARG_OF_PERICENTER":"98.5624","EPOCH":"2023-06-14T18:13:54.825312","REV_AT_EPOCH":"12145","NORAD_CAT_ID":"48148","RCS_SIZE":"LARGE","BSTAR":"0.00108660000000","ECCENTRICITY":"0.00006680","TLE_LINE2":"2 48148  53.0538 335.9927 0000668  98.5624 261.5440 15.06377719121454","MEAN_ELEMENT_THEORY":"SGP4","MEAN_MOTION_DOT":"0.00015931","SEMIMAJOR_AXIS":"6925.417","MEAN_MOTION_DDOT":"0.0000000000000","MEAN_ANOMALY":"261.5440","GP_ID":"233921990","OBJECT_ID":"2021-027BJ","CENTER_NAME":"EARTH","DECAY_DATE":null,"PERIOD":"95.594","TLE_LINE1":"1 48148U 21027BJ  23165.75966233  .00015931  00000-0  10866-2 0  9997","EPHEMERIS_TYPE":"0","REF_FRAME":"TEME","INCLINATION":"53.0538","LAUNCH_DATE":"2021-04-07","OBJECT_TYPE":"PAYLOAD","CLASSIFICATION_TYPE":"U","ELEMENT_SET_NO":"999","PERIAPSIS":"546.819","TIME_SYSTEM":"UTC","OBJECT_NAME":"STARLINK-2491","SITE":"AFETR","RA_OF_ASC_NODE":"335.9927"},{"REV_AT_EPOCH":"12212","RCS_SIZE":"LARGE","NORAD_CAT_ID":"48149","ARG_OF_PERICENTER":"88.2289","EPOCH":"2023-06-14T16:56:56.643360","MEAN_MOTION":"15.06386492","FILE":"3933215","APOAPSIS":"547.797","COUNTRY_CODE":"US","MEAN_MOTION_DDOT":"0.0000000000000","MEAN_ANOMALY":"271.8789","TLE_LINE2":"2 48149  53.0539 316.2285 0000783  88.2289 271.8789 15.06386492122129","MEAN_ELEMENT_THEORY":"SGP4","MEAN_MOTION_DOT":"0.00020537","SEMIMAJOR_AXIS":"6925.390","BSTAR":"0.00139410000000","ECCENTRICITY":"0.00007830","PERIOD":"95.593","TLE_LINE1":"1 48149U 21027BK  23165.70621115  .00020537  00000-0  13941-2 0  9995","GP_ID":"233945468","OBJECT_ID":"2021-027BK","CENTER_NAME":"EARTH","DECAY_DATE":null,"SITE":"AFETR","RA_OF_ASC_NODE":"316.2285","PERIAPSIS":"546.713","TIME_SYSTEM":"UTC","OBJECT_NAME":"STARLINK-2492","LAUNCH_DATE":"2021-04-07","INCLINATION":"53.0539","OBJECT_TYPE":"PAYLOAD","CLASSIFICATION_TYPE":"U","ELEMENT_SET_NO":"999","EPHEMERIS_TYPE":"0","REF_FRAME":"TEME"},{"EPHEMERIS_TYPE":"0","REF_FRAME":"TEME","LAUNCH_DATE":"2021-04-07","INCLINATION":"53.0545","OBJECT_TYPE":"PAYLOAD","CLASSIFICATION_TYPE":"U","ELEMENT_SET_NO":"999","PERIAPSIS":"546.635","TIME_SYSTEM":"UTC","OBJECT_NAME":"STARLINK-2493","RA_OF_ASC_NODE":"315.6199","SITE":"AFETR","OBJECT_ID":"2021-027BL","GP_ID":"233946218","CENTER_NAME":"EARTH","DECAY_DATE":null,"PERIOD":"95.592","TLE_LINE1":"1 48150U 21027BL  23165.84259610  .00007647  00000-0  53170-3 0  9995","BSTAR":"0.00053170000000","ECCENTRICITY":"0.00008350","TLE_LINE2":"2 48150  53.0545 315.6199 0000835  93.5709 266.5376 15.06400060122153","MEAN_ELEMENT_THEORY":"SGP4","MEAN_MOTION_DOT":"0.00007647","SEMIMAJOR_AXIS":"6925.348","MEAN_MOTION_DDOT":"0.0000000000000","MEAN_ANOMALY":"266.5376","MEAN_MOTION":"15.06400060","APOAPSIS":"547.792","FILE":"3933215","COUNTRY_CODE":"US","ARG_OF_PERICENTER":"93.5709","EPOCH":"2023-06-14T20:13:20.303040","REV_AT_EPOCH":"12215","NORAD_CAT_ID":"48150","RCS_SIZE":"LARGE"}];
